ONEWEB-0331             
1 49198U 21083N   25171.90043472  .00000022  00000+0  21846-4 0  9998
2 49198  87.9136  47.2439 0001723  68.7278 291.4038 13.18686141183678
ONEWEB-0333             
1 49199U 21083P   25171.90601566  .00000379  00000+0  10019-2 0  9996
2 49199  87.8966  32.0610 0001861  86.2115 273.9227 13.13469959184778
ONEWEB-0334             
1 49200U 21083Q   25171.47961524 -.00000045  00000+0 -14327-3 0  9993
2 49200  87.9254 346.5140 0002434 114.6722 245.4665 13.20771492189041
ONEWEB-0335             
1 49201U 21083R   25171.36769329  .00000286  00000+0  74862-3 0  9996
2 49201  87.8968  32.1573 0001695  79.1292 281.0028 13.13467572183424
ONEWEB-0336             
1 49202U 21083S   25171.87215093 -.00000248  00000+0 -71292-3 0  9991
2 49202  87.8967  32.0495 0001676  85.4749 274.6571 13.13469341184789
ONEWEB-0337             
1 49203U 21083T   25171.34893075 -.00000042  00000+0 -14949-3 0  9994
2 49203  87.8966  32.1530 0001875  78.2866 281.8473 13.13469758183413
ONEWEB-0338             
1 49204U 21083U   25171.45437053  .00000037  00000+0  57961-4 0  9991
2 49204  87.9261 346.5091 0002081  99.7421 260.3947 13.20771989190362
ONEWEB-0339             
1 49205U 21083V   25171.05282312  .00000221  00000+0  56922-3 0  9994
2 49205  87.8963  32.1997 0001961  81.8982 278.2369 13.13469742183354
